H1 CPF 01  gfz 2021 05 18 12  6382 tandemx   
H2 1003001  6202 36605    2021 05 18 12 59 42 2021 05 23 00 00 42   120 1 1  0 0 0
H9
10 0 59353  76302.000000  0     -35311.310  -1272106.693   6758809.482
10 0 59353  76422.000000  0    -660631.453   -599380.331   6819316.850
10 0 59353  76542.000000  0   -1262464.786     94543.077   6759991.965
10 0 59353  76662.000000  0   -1830049.018    797049.916   6581868.924
10 0 59353  76782.000000  0   -2353437.996   1495192.666   6288056.503
10 0 59353  76902.000000  0   -2823676.633   2175927.661   5883687.306
10 0 59353  77022.000000  0   -3232955.818   2826358.949   5375834.041
10 0 59353  77142.000000  0   -3574745.700   3433984.596   4773392.171
10 0 59353  77262.000000  0   -3843904.315   3986940.125   4086929.722
10 0 59353  77382.000000  0   -4036758.796   4474235.348   3328506.160
10 0 59353  77502.000000  0   -4151157.449   4885979.017   2511461.954
10 0 59353  77622.000000  0   -4186490.452   5213584.832   1650181.536
10 0 59353  77742.000000  0   -4143679.038   5449953.932    759835.980
10 0 59353  77862.000000  0   -4025134.375   5589630.062   -143890.191
10 0 59353  77982.000000  0   -3834685.710   5628923.671  -1045084.571
10 0 59353  78102.000000  0   -3577478.301   5565999.015  -1927897.827
10 0 59353  78222.000000  0   -3259844.543   5400922.459  -2776831.036
10 0 59353  78342.000000  0   -2889152.253   5135673.241  -3577013.178
10 0 59353  78462.000000  0   -2473635.801   4774114.481  -4314463.783
10 0 59353  78582.000000  0   -2022213.353   4321927.751  -4976334.731
10 0 59353  78702.000000  0   -1544295.848   3786514.593  -5551126.823
10 0 59353  78822.000000  0   -1049592.155   3176867.681  -6028881.557
10 0 59353  78942.000000  0    -547913.193   2503412.200  -6401344.079
10 0 59353  79062.000000  0     -48979.777   1777822.675  -6662093.649
10 0 59353  79182.000000  0     437761.144   1012819.959  -6806643.430
10 0 59353  79302.000000  0     903310.716    221950.677  -6832510.008
10 0 59353  79422.000000  0    1339280.885   -580648.387  -6739251.388
10 0 59353  79542.000000  0    1738041.319  -1380497.413  -6528472.120
10 0 59353  79662.000000  0    2092849.681  -2163027.445  -6203798.536
10 0 59353  79782.000000  0    2397964.555  -2913839.128  -5770823.763
10 0 59353  79902.000000  0    2648738.947  -3618964.851  -5237023.115
10 0 59353  80022.000000  0    2841693.203  -4265130.082  -4611635.138
10 0 59353  80142.000000  0    2974563.900  -4840004.412  -3905511.095
10 0 59353  80262.000000  0    3046329.420  -5332441.396  -3130938.009
10 0 59353  80382.000000  0    3057211.330  -5732703.955  -2301432.781
10 0 59353  80502.000000  0    3008650.591  -6032666.083  -1431509.617
10 0 59353  80622.000000  0    2903258.943  -6225987.230   -536425.733
10 0 59353  80742.000000  0    2744744.723  -6308253.658    368091.402
10 0 59353  80862.000000  0    2537815.497  -6277081.107   1266127.004
10 0 59353  80982.000000  0    2288060.566  -6132179.135   2141867.707
10 0 59353  81102.000000  0    2001814.771  -5875371.078   2979890.318
10 0 59353  81222.000000  0    1686008.227  -5510570.589   3765440.512
10 0 59353  81342.000000  0    1348005.488  -5043717.605   4484697.395
10 0 59353  81462.000000  0     995439.316  -4482674.741   5125019.059
10 0 59353  81582.000000  0     636042.028  -3837087.087   5675166.096
10 0 59353  81702.000000  0     277478.082  -3118205.791   6125496.484
10 0 59353  81822.000000  0     -72816.847  -2338683.353   6468128.020
10 0 59353  81942.000000  0    -407787.535  -1512346.140   6697069.386
10 0 59353  82062.000000  0    -720899.126   -653947.034   6808319.737
10 0 59353  82182.000000  0   -1006263.216    221099.523   6799935.362
10 0 59353  82302.000000  0   -1258747.985   1096994.753   6672061.478
10 0 59353  82422.000000  0   -1474070.089   1957840.246   6426929.538
10 0 59353  82542.000000  0   -1648867.568   2787925.981   6068820.928
10 0 59353  82662.000000  0   -1780752.746   3572017.790   5603996.482
10 0 59353  82782.000000  0   -1868343.623   4295639.138   5040592.890
10 0 59353  82902.000000  0   -1911274.245   4945343.950   4388487.094
10 0 59353  83022.000000  0   -1910182.981   5508974.144   3659127.642
10 0 59353  83142.000000  0   -1866679.029   5975896.121   2865336.221
10 0 59353  83262.000000  0   -1783288.327   6337210.188   2021081.873
10 0 59353  83382.000000  0   -1663378.794   6585929.164   1141232.004
10 0 59353  83502.000000  0   -1511066.267   6717120.156    241284.721
10 0 59353  83622.000000  0   -1331104.737   6728006.392   -662911.384
10 0 59353  83742.000000  0   -1128763.017   6618027.344  -1555446.314
10 0 59353  83862.000000  0    -909690.062   6388850.228  -2420639.959
10 0 59353  83982.000000  0    -679774.785   6044335.007  -3243323.555
10 0 59353  84102.000000  0    -445003.331   5590458.502  -4009107.385
10 0 59353  84222.000000  0    -211316.986   5035199.219  -4704632.191
10 0 59353  84342.000000  0      15525.787   4388384.797  -5317798.281
10 0 59353  84462.000000  0     230080.494   3661507.339  -5837969.171
10 0 59353  84582.000000  0     427337.636   2867509.694  -6256146.786
10 0 59353  84702.000000  0     602830.622   2020548.744  -6565115.352
10 0 59353  84822.000000  0     752729.644   1135741.875  -6759554.369
10 0 59353  84942.000000  0     873919.677    228899.252  -6836121.003
10 0 59353  85062.000000  0     964061.465   -683753.999  -6793501.297
10 0 59353  85182.000000  0    1021634.582  -1585861.911  -6632428.882
10 0 59353  85302.000000  0    1045962.370  -2461222.111  -6355672.562
10 0 59353  85422.000000  0    1037219.181  -3294069.324  -5967995.849
10 0 59353  85542.000000  0     996418.267  -4069357.237  -5476084.929
10 0 59353  85662.000000  0     925381.135  -4773030.240  -4888442.778
10 0 59353  85782.000000  0     826689.466  -5392281.062  -4215253.981
10 0 59353  85902.000000  0     703618.931  -5915791.689  -3468219.081
10 0 59353  86022.000000  0     560056.538  -6333950.398  -2660359.185
10 0 59353  86142.000000  0     400403.394  -6639040.470  -1805794.612
10 0 59353  86262.000000  0     229464.540  -6825396.029   -919499.091
10 0 59353  86382.000000  0      52328.110  -6889518.451    -17034.211
10 0 59354    102.000000  0    -125763.060  -6830150.572    885729.256
10 0 59354    222.000000  0    -299543.988  -6648307.359   1772897.887
10 0 59354    342.000000  0    -463861.152  -6347260.983   2628844.965
10 0 59354    462.000000  0    -613803.348  -5932479.142   3438495.728
10 0 59354    582.000000  0    -744825.793  -5411517.135   4187599.593
10 0 59354    702.000000  0    -852865.938  -4793871.805   4862983.857
10 0 59354    822.000000  0    -934446.868  -4090798.818   5452786.330
10 0 59354    942.000000  0    -986766.247  -3315098.198   5946662.917
10 0 59354   1062.000000  0   -1007769.178  -2480870.872   6335965.201
10 0 59354   1182.000000  0    -996202.679  -1603255.663   6613884.009
10 0 59354   1302.000000  0    -951651.899   -698152.209   6775562.634
10 0 59354   1422.000000  0    -874558.251    218068.933   6818177.440
10 0 59354   1542.000000  0    -766217.702   1128862.492   6740984.158
10 0 59354   1662.000000  0    -628758.557   2017806.981   6545330.282
10 0 59354   1782.000000  0    -465099.998   2868900.433   6234632.866
10 0 59354   1902.000000  0    -278892.239   3666848.874   5814322.662
10 0 59354   2022.000000  0     -74439.545   4397343.922   5291754.262
10 0 59354   2142.000000  0     143393.403   5047323.769   4676083.643
10 0 59354   2262.000000  0     369290.149   5605215.386   3978113.065
10 0 59354   2382.000000  0     597603.006   6061146.761   3210104.015
10 0 59354   2502.000000  0     822483.744   6407134.346   2385568.145
10 0 59354   2622.000000  0    1038023.410   6637235.274   1519023.079
10 0 59354   2742.000000  0    1238393.913   6747654.965    625731.411
10 0 59354   2862.000000  0    1417990.422   6736813.398   -278575.864
10 0 59354   2982.000000  0    1571570.127   6605366.668  -1177984.698
10 0 59354   3102.000000  0    1694383.266   6356183.864  -2056685.862
10 0 59354   3222.000000  0    1782293.965   5994280.733  -2899259.780
10 0 59354   3342.000000  0    1831887.668   5526711.073  -3690952.530
10 0 59354   3462.000000  0    1840562.668   4962418.458  -4417936.716
10 0 59354   3582.000000  0    1806603.475   4312052.683  -5067550.922
10 0 59354   3702.000000  0    1729234.486   3587757.824  -5628513.625
10 0 59354   3822.000000  0    1608653.842   2802937.307  -6091110.446
10 0 59354   3942.000000  0    1446045.831   1971999.641  -6447351.401
10 0 59354   4062.000000  0    1243573.216   1110092.576  -6691096.634
10 0 59354   4182.000000  0    1004349.832    232829.263  -6818152.676
10 0 59354   4302.000000  0     732392.738   -643990.410  -6826336.716
10 0 59354   4422.000000  0     432555.342  -1504658.359  -6715508.664
10 0 59354   4542.000000  0     110443.167  -2333831.337  -6487572.132
10 0 59354   4662.000000  0    -227687.347  -3116797.373  -6146447.303
10 0 59354   4782.000000  0    -575046.713  -3839734.215  -5698011.040
10 0 59354   4902.000000  0    -924443.375  -4489952.035  -5150005.290
10 0 59354   5022.000000  0   -1268427.172  -5056119.445  -4511915.583
10 0 59354   5142.000000  0   -1599443.293  -5528468.101  -3794817.985
10 0 59354   5262.000000  0   -1909993.274  -5898970.825  -3011196.019
10 0 59354   5382.000000  0   -2192799.530  -6161489.169  -2174730.172
10 0 59354   5502.000000  0   -2440970.025  -6311887.336  -1300062.479
10 0 59354   5622.000000  0   -2648158.954  -6348108.609   -402539.069
10 0 59354   5742.000000  0   -2808719.280  -6270210.331    502064.398
10 0 59354   5862.000000  0   -2917842.645  -6080355.896   1397827.576
10 0 59354   5982.000000  0   -2971683.100  -5782764.310   2268974.659
10 0 59354   6102.000000  0   -2967461.242  -5383617.682   3100161.275
10 0 59354   6222.000000  0   -2903545.815  -4890929.792   3876752.218
10 0 59354   6342.000000  0   -2779511.014  -4314379.467   4585084.244
99
